From: horizons@ssd.jpl.nasa.gov (Horizons Ephemeris System)
Subject: [Horizons] SMALL BODY #C(500@10)_T(24P/Schaumasse) (1/1)
Date: March 1, 2021 at 1:22:48 PM PST

Automated mail xmit by MAIL_REQUEST, PID= 2301 Mon Mar  1 13:22:48 2021
++++++++++++++++++++++++++++++++ (part 1 of 1)  +++++++++++++++++++++++++++++++
*******************************************************************************
JPL/HORIZONS                   24P/Schaumasse              2021-Mar-01 13:22:48
Rec #:90000352 (+COV) Soln.date: 2018-Sep-24_15:22:36    # obs: 832 (2000-2018)

IAU76/J2000 helio. ecliptic osc. elements (au, days, deg., period=Julian yrs):

 EPOCH=  2457350.5 ! 2015-Nov-24.0000000 (TDB)    RMSW= n.a.
  EC= .7048377385790582   QR= 1.20616902407146    TP= 2458074.2608171166
  OM= 79.66577775476655   W= 58.00232148852397    IN= 11.73397999992298
  A= 4.086460844502399    MA= 273.6468611087108   ADIST= 6.966752664933338
  PER= 8.260935424371     N= .119311704           ANGMOM= .024667609
  DAN= 1.49716            DDN= 3.28215            L= 137.1218429
  B= 9.9314737            MOID= .283142           TP= 2017-Nov-16.7608171166

Comet physical (GM= km^3/s^2; RAD= km):
  GM= n.a.                RAD= 1.3
  M1=  12.      M2=  15.6     k1=  16.    k2=  5.      PHCOF=  .030

Comet non-gravitational force model (AMRAT=m^2/kg;A1-A3=au/d^2;DT=days;R0=au):
  AMRAT=  0.                                      DT=  0.
  A1= 1.051463112235E-9   A2= -9.955924004316E-10 A3= 0.
Standard model:
  ALN=  .1112620426   NK=  4.6142   NM=  2.15     NN=  5.093    R0=  2.808

COMET comments 
1: soln ref.= JPL#K173/9, data arc: 2000-10-07 to 2018-06-19
2: k1=16., k2=5., phase coef.=0.03;
*******************************************************************************


*******************************************************************************
Ephemeris / MAIL_REQUEST Mon Mar  1 13:22:48 2021 Pasadena, USA  / Horizons
*******************************************************************************
Target body name: 24P/Schaumasse                  {source: JPL#K173/9}
Center body name: Sun (10)                        {source: DE431}
Center-site name: BODY CENTER
*******************************************************************************
Start time      : A.D. 1990-Jan-01 00:00:00.0000 TDB
Stop  time      : A.D. 2020-Dec-31 00:00:00.0000 TDB
Step-size       : 10080 minutes
*******************************************************************************
Center geodetic : 0.00000000,0.00000000,0.0000000 {E-lon(deg),Lat(deg),Alt(km)}
Center cylindric: 0.00000000,0.00000000,0.0000000 {E-lon(deg),Dxy(km),Dz(km)}
Center radii    : 696000.0 x 696000.0 x 696000.0 k{Equator, meridian, pole}    
Small perturbers: Yes                             {source: SB431-N16}
Output units    : AU-D
Output type     : GEOMETRIC cartesian states
Output format   : 6 (LT, range, and range-rate)
Reference frame : Ecliptic of J2000.0
*******************************************************************************
Initial IAU76/J2000 heliocentric ecliptic osculating elements (au, days, deg.):
 EPOCH=  2457350.5 ! 2015-Nov-24.0000000 (TDB)    RMSW= n.a.                  
  EC= .7048377385790582   QR= 1.20616902407146    TP= 2458074.2608171166      
  OM= 79.66577775476655   W= 58.00232148852397    IN= 11.73397999992298       
 Equivalent ICRF heliocentric equatorial cartesian coordinates (au, au/d):
  X= 5.243883204949549E+00  Y=-9.259358052882487E-01  Z=-1.630182091044841E+00
 VX=-2.353907500637625E-03 VY= 4.573085882913179E-03 VZ= 2.721289546032047E-03
Comet physical (GM= km^3/s^2; RAD= km):                                        
  GM= n.a.                RAD= 1.3                                            
  M1=  12.      M2=  15.6     k1=  16.    k2=  5.      PHCOF=  .030           
Comet non-gravitational force model (AMRAT=m^2/kg;A1-A3=au/d^2;DT=days;R0=au): 
  AMRAT=  0.                                      DT=  0.                     
  A1= 1.051463112235E-9   A2= -9.955924004316E-10 A3= 0.                      
Standard model:                                                               
  ALN=  .1112620426   NK=  4.6142   NM=  2.15     NN=  5.093    R0=  2.808    
*******************************************************************************
           JDTDB,            Calendar Date (TDB),                     LT,                     RG,                     RR,
**************************************************************************************************************************
$$SOE
2454360.500000000, A.D. 2007-Sep-17 00:00:00.0000,  3.145466212720014E-02,  5.446205919906408E+00, -3.966713793643306E-03,
2454367.500000000, A.D. 2007-Sep-24 00:00:00.0000,  3.129341435756913E-02,  5.418286734064106E+00, -4.010247986967628E-03,
2454374.500000000, A.D. 2007-Oct-01 00:00:00.0000,  3.113040027027651E-02,  5.390061719799098E+00, -4.054094311681816E-03,
2454381.500000000, A.D. 2007-Oct-08 00:00:00.0000,  3.096560712736226E-02,  5.361528671601977E+00, -4.098258684811849E-03,
2454388.500000000, A.D. 2007-Oct-15 00:00:00.0000,  3.079902194796801E-02,  5.332685341906788E+00, -4.142747187662157E-03,
2454395.500000000, A.D. 2007-Oct-22 00:00:00.0000,  3.063063150569900E-02,  5.303529440634267E+00, -4.187565812129360E-03,
2454402.500000000, A.D. 2007-Oct-29 00:00:00.0000,  3.046042234376410E-02,  5.274058637813259E+00, -4.232719859783480E-03,
2454409.500000000, A.D. 2007-Nov-05 00:00:00.0000,  3.028838080418282E-02,  5.244270568637747E+00, -4.278214266448229E-03,
2454416.500000000, A.D. 2007-Nov-12 00:00:00.0000,  3.011449299403218E-02,  5.214162827622685E+00, -4.324056075767206E-03,
2454423.500000000, A.D. 2007-Nov-19 00:00:00.0000,  2.993874469328761E-02,  5.183732952647146E+00, -4.370253961130928E-03,
2454430.500000000, A.D. 2007-Nov-26 00:00:00.0000,  2.976112134085610E-02,  5.152978422536025E+00, -4.416815956311081E-03,
2454437.500000000, A.D. 2007-Dec-03 00:00:00.0000,  2.958160806432232E-02,  5.121896662210434E+00, -4.463749545599289E-03,
2454444.500000000, A.D. 2007-Dec-10 00:00:00.0000,  2.940018968973931E-02,  5.090485044382903E+00, -4.511062219770295E-03,
2454451.500000000, A.D. 2007-Dec-17 00:00:00.0000,  2.921685073655081E-02,  5.058740888678198E+00, -4.558761668270065E-03,
2454458.500000000, A.D. 2007-Dec-24 00:00:00.0000,  2.903157540871337E-02,  5.026661460096187E+00, -4.606855808821133E-03,
2454465.500000000, A.D. 2007-Dec-31 00:00:00.0000,  2.884434758558838E-02,  4.994243967434811E+00, -4.655352778773013E-03,
2454472.500000000, A.D. 2008-Jan-07 00:00:00.0000,  2.865515081354454E-02,  4.961485561836129E+00, -4.704260905212963E-03,
2454479.500000000, A.D. 2008-Jan-14 00:00:00.0000,  2.846396830019877E-02,  4.928383335789137E+00, -4.753588581294700E-03,
2454486.500000000, A.D. 2008-Jan-21 00:00:00.0000,  2.827078291908747E-02,  4.894934323938590E+00, -4.803343828463487E-03,
2454493.500000000, A.D. 2008-Jan-28 00:00:00.0000,  2.807557723847377E-02,  4.861135508072804E+00, -4.853533696370428E-03,
2454500.500000000, A.D. 2008-Feb-04 00:00:00.0000,  2.787833354426459E-02,  4.826983821091646E+00, -4.904165574714590E-03,
2454507.500000000, A.D. 2008-Feb-11 00:00:00.0000,  2.767903377579724E-02,  4.792476135888305E+00, -4.955249230083980E-03,
2454514.500000000, A.D. 2008-Feb-18 00:00:00.0000,  2.747765945916479E-02,  4.757609253804953E+00, -5.006794875160075E-03,
2454521.500000000, A.D. 2008-Feb-25 00:00:00.0000,  2.727419172641921E-02,  4.722379907957660E+00, -5.058811797975861E-03,
2454528.500000000, A.D. 2008-Mar-03 00:00:00.0000,  2.706861134512629E-02,  4.686784768353665E+00, -5.111308839802924E-03,
2454535.500000000, A.D. 2008-Mar-10 00:00:00.0000,  2.686089872726619E-02,  4.650820443432473E+00, -5.164294784068419E-03,
2454542.500000000, A.D. 2008-Mar-17 00:00:00.0000,  2.665103392886374E-02,  4.614483480001828E+00, -5.217778462524821E-03,
2454549.500000000, A.D. 2008-Mar-24 00:00:00.0000,  2.643899664763751E-02,  4.577770362830669E+00, -5.271768768438692E-03,
2454556.500000000, A.D. 2008-Mar-31 00:00:00.0000,  2.622476622064454E-02,  4.540677514241326E+00, -5.326274647563218E-03,
2454563.500000000, A.D. 2008-Apr-07 00:00:00.0000,  2.600832162282584E-02,  4.503201293857683E+00, -5.381305053396424E-03,
2454570.500000000, A.D. 2008-Apr-14 00:00:00.0000,  2.578964146999515E-02,  4.465337999122665E+00, -5.436868734373159E-03,
2454577.500000000, A.D. 2008-Apr-21 00:00:00.0000,  2.556870403843579E-02,  4.427083868691331E+00, -5.492973599453525E-03,
2454584.500000000, A.D. 2008-Apr-28 00:00:00.0000,  2.534548730953624E-02,  4.388435090159272E+00, -5.549626469146157E-03,
2454591.500000000, A.D. 2008-May-05 00:00:00.0000,  2.511996897543136E-02,  4.349387801039375E+00, -5.606835311913315E-03,
2454598.500000000, A.D. 2008-May-12 00:00:00.0000,  2.489212636346734E-02,  4.309938075683327E+00, -5.664609879097877E-03,
2454605.500000000, A.D. 2008-May-19 00:00:00.0000,  2.466193641319270E-02,  4.270081921297723E+00, -5.722959308951960E-03,
2454612.500000000, A.D. 2008-May-26 00:00:00.0000,  2.442937571809570E-02,  4.229815285170686E+00, -5.781891657539408E-03,
2454619.500000000, A.D. 2008-Jun-02 00:00:00.0000,  2.419442055955049E-02,  4.189134060549460E+00, -5.841414368065315E-03,
2454626.500000000, A.D. 2008-Jun-09 00:00:00.0000,  2.395704692679853E-02,  4.148034090100070E+00, -5.901534457445355E-03,
2454633.500000000, A.D. 2008-Jun-16 00:00:00.0000,  2.371723053408079E-02,  4.106511168873695E+00, -5.962258503165467E-03,
2454640.500000000, A.D. 2008-Jun-23 00:00:00.0000,  2.347494683987161E-02,  4.064561047636889E+00, -6.023592564829572E-03,
2454647.500000000, A.D. 2008-Jun-30 00:00:00.0000,  2.323017106991794E-02,  4.022179436860708E+00, -6.085542073912135E-03,
2454654.500000000, A.D. 2008-Jul-07 00:00:00.0000,  2.298287824600691E-02,  3.979362011701656E+00, -6.148111642391705E-03,
2454661.500000000, A.D. 2008-Jul-14 00:00:00.0000,  2.273304322739923E-02,  3.936104419175666E+00, -6.211304572082930E-03,
